[{"OBJECT_NAME":"YAOGAN-30 06C","OBJECT_ID":"2019-045C","EPOCH":"2026-03-09T20:24:37.552032","MEAN_MOTION":15.02172666,"ECCENTRICITY":0.00010812,"INCLINATION":34.9925,"RA_OF_ASC_NODE":214.7382,"ARG_OF_PERICENTER":261.6749,"MEAN_ANOMALY":98.3837,"EPHEMERIS_TYPE":0,"CLASSIFICATION_TYPE":"U","NORAD_CAT_ID":44451,"ELEMENT_SET_NO":999,"REV_AT_EPOCH":36160,"BSTAR":0.00032595529,"MEAN_MOTION_DOT":4.352e-5,"MEAN_MOTION_DDOT":0},{"OBJECT_NAME":"TITAN 4B R\/B","OBJECT_ID":"2000-047B","EPOCH":"2026-03-09T21:29:16.286496","MEAN_MOTION":15.09565128,"ECCENTRICITY":0.00386241,"INCLINATION":67.9901,"RA_OF_ASC_NODE":39.932,"ARG_OF_PERICENTER":35.1583,"MEAN_ANOMALY":325.2103,"EPHEMERIS_TYPE":0,"CLASSIFICATION_TYPE":"U","NORAD_CAT_ID":26474,"ELEMENT_SET_NO":999,"REV_AT_EPOCH":39294,"BSTAR":0.00034805691,"MEAN_MOTION_DOT":5.567e-5,"MEAN_MOTION_DDOT":0}]
